0 SOLIDARIDAD 1
1 22911U 93073A   13279.37276201 -.00000102  00000-0  10000-3 0  7285
2 22911 011.1826 044.1711 0008341 110.3482 249.7563 01.00280133 71427
0 SOLIDARIDAD 1
1 22911U 93073A   13282.36421122 -.00000109  00000-0  10000-3 0  7290
2 22911 011.1876 044.1353 0008362 110.4851 249.6084 01.00280137 71452
0 SOLIDARIDAD 1
1 22911U 93073A   13283.36142457  .00000000  00000-0  10000-3 0  7314
2 22911 011.1902 044.1243 0008244 112.7422 247.3554 01.00275699 71463
0 SOLIDARIDAD 1
1 22911U 93073A   13285.35571463 -.00000116  00000-0  10000-3 0  7306
2 22911 011.1926 044.1006 0008530 109.8068 250.2915 01.00280063 71484
0 SOLIDARIDAD 1
1 22911U 93073A   13292.33571700 -.00000116  00000-0  10000-3 0  7317
2 22911 011.2042 044.0184 0008690 110.9721 249.0743 01.00279980 71555
